{
  "type": "FeatureCollection",
  "features": [
    {
      "type": "Feature",
      "properties": {
        "norad_id": 66997,
        "name": "2025-292E",
        "group": "last-30-days",
        "lat": 62.76211510392192,
        "lon": 56.6170033805474,
        "alt_km": 555.6920052772139,
        "timestamp": "2025-12-25T07:41:08.451605+00:00",
        "meta_object_name": "2025-292E",
        "meta_object_id": "2025-292E",
        "meta_epoch": "2025-12-24T21:49:37.021728",
        "meta_mean_motion": 15.04766573,
        "meta_eccentricity": 0.00141606,
        "meta_inclination": 97.6512,
        "meta_ra_of_asc_node": 71.3484,
        "meta_arg_of_pericenter": 232.6185,
        "meta_mean_anomaly": 127.3752,
        "meta_ephemeris_type": 0,
        "meta_classification_type": "U",
        "meta_norad_cat_id": 66997,
        "meta_element_set_no": 999,
        "meta_rev_at_epoch": 221,
        "meta_bstar": 0.00032519144,
        "meta_mean_motion_dot": 4.533e-05,
        "meta_mean_motion_ddot": 0,
        "tle_line1": "1 66997U 25292E   25358.90945627  .00004533  00000+0  32519-3 0  9999",
        "tle_line2": "2 66997  97.6512  71.3484 0014160 232.6185 127.3752 15.04766573  2211"
      },
      "geometry": {
        "type": "Point",
        "coordinates": [
          56.6170033805474,
          62.76211510392192
        ]
      }
    },
    {
      "type": "Feature",
      "properties": {
        "norad_id": 66998,
        "name": "2025-292F",
        "group": "last-30-days",
        "lat": 71.10568601604363,
        "lon": 48.62951734238868,
        "alt_km": 554.7074123749053,
        "timestamp": "2025-12-25T07:41:08.451617+00:00",
        "meta_object_name": "2025-292F",
        "meta_object_id": "2025-292F",
        "meta_epoch": "2025-12-24T21:47:19.034880",
        "meta_mean_motion": 15.04947893,
        "meta_eccentricity": 0.00152765,
        "meta_inclination": 97.6531,
        "meta_ra_of_asc_node": 71.3538,
        "meta_arg_of_pericenter": 233.5606,
        "meta_mean_anomaly": 126.4213,
        "meta_ephemeris_type": 0,
        "meta_classification_type": "U",
        "meta_norad_cat_id": 66998,
        "meta_element_set_no": 999,
        "meta_rev_at_epoch": 222,
        "meta_bstar": 0.00042963076,
        "meta_mean_motion_dot": 6.042e-05,
        "meta_mean_motion_ddot": 0,
        "tle_line1": "1 66998U 25292F   25358.90785920  .00006042  00000+0  42963-3 0  9999",
        "tle_line2": "2 66998  97.6531  71.3538 0015276 233.5606 126.4213 15.04947893  2229"
      },
      "geometry": {
        "type": "Point",
        "coordinates": [
          48.62951734238868,
          71.10568601604363
        ]
      }
    },
    {
      "type": "Feature",
      "properties": {
        "norad_id": 66999,
        "name": "2025-292G",
        "group": "last-30-days",
        "lat": 74.20090246997012,
        "lon": 43.3884668053634,
        "alt_km": 553.8800255018823,
        "timestamp": "2025-12-25T07:41:08.451627+00:00",
        "meta_object_name": "2025-292G",
        "meta_object_id": "2025-292G",
        "meta_epoch": "2025-12-24T21:46:25.351104",
        "meta_mean_motion": 15.05011977,
        "meta_eccentricity": 0.00147898,
        "meta_inclination": 97.654,
        "meta_ra_of_asc_node": 71.3562,
        "meta_arg_of_pericenter": 235.5442,
        "meta_mean_anomaly": 124.4387,
        "meta_ephemeris_type": 0,
        "meta_classification_type": "U",
        "meta_norad_cat_id": 66999,
        "meta_element_set_no": 999,
        "meta_rev_at_epoch": 222,
        "meta_bstar": 0.00043420168,
        "meta_mean_motion_dot": 6.117e-05,
        "meta_mean_motion_ddot": 0,
        "tle_line1": "1 66999U 25292G   25358.90723786  .00006117  00000+0  43420-3 0  9994",
        "tle_line2": "2 66999  97.6540  71.3562 0014789 235.5442 124.4387 15.05011977  2221"
      },
      "geometry": {
        "type": "Point",
        "coordinates": [
          43.3884668053634,
          74.20090246997012
        ]
      }
    },
    {
      "type": "Feature",
      "properties": {
        "norad_id": 67000,
        "name": "2025-292H",
        "group": "last-30-days",
        "lat": 74.76073394137366,
        "lon": 42.18324020011156,
        "alt_km": 553.6801160860487,
        "timestamp": "2025-12-25T07:41:08.451637+00:00",
        "meta_object_name": "2025-292H",
        "meta_object_id": "2025-292H",
        "meta_epoch": "2025-12-24T21:46:15.755520",
        "meta_mean_motion": 15.05041901,
        "meta_eccentricity": 0.00147677,
        "meta_inclination": 97.6552,
        "meta_ra_of_asc_node": 71.3585,
        "meta_arg_of_pericenter": 235.3911,
        "meta_mean_anomaly": 124.5923,
        "meta_ephemeris_type": 0,
        "meta_classification_type": "U",
        "meta_norad_cat_id": 67000,
        "meta_element_set_no": 999,
        "meta_rev_at_epoch": 209,
        "meta_bstar": 0.00053786509,
        "meta_mean_motion_dot": 7.6e-05,
        "meta_mean_motion_ddot": 0,
        "tle_line1": "1 67000U 25292H   25358.90712680  .00007600  00000+0  53787-3 0  9994",
        "tle_line2": "2 67000  97.6552  71.3585 0014767 235.3911 124.5923 15.05041901  2090"
      },
      "geometry": {
        "type": "Point",
        "coordinates": [
          42.18324020011156,
          74.76073394137366
        ]
      }
    },
    {
      "type": "Feature",
      "properties": {
        "norad_id": 67001,
        "name": "2025-292J",
        "group": "last-30-days",
        "lat": 43.83707390200062,
        "lon": 64.33217479777453,
        "alt_km": 559.988488258743,
        "timestamp": "2025-12-25T07:41:08.451654+00:00",
        "meta_object_name": "2025-292J",
        "meta_object_id": "2025-292J",
        "meta_epoch": "2025-12-24T21:54:39.619584",
        "meta_mean_motion": 15.04428553,
        "meta_eccentricity": 0.00149816,
        "meta_inclination": 97.6531,
        "meta_ra_of_asc_node": 71.3473,
        "meta_arg_of_pericenter": 224.4474,
        "meta_mean_anomaly": 135.5551,
        "meta_ephemeris_type": 0,
        "meta_classification_type": "U",
        "meta_norad_cat_id": 67001,
        "meta_element_set_no": 999,
        "meta_rev_at_epoch": 222,
        "meta_bstar": 0.00040851553,
        "meta_mean_motion_dot": 5.662e-05,
        "meta_mean_motion_ddot": 0,
        "tle_line1": "1 67001U 25292J   25358.91295856  .00005662  00000+0  40852-3 0  9992",
        "tle_line2": "2 67001  97.6531  71.3473 0014981 224.4474 135.5551 15.04428553  2220"
      },
      "geometry": {
        "type": "Point",
        "coordinates": [
          64.33217479777453,
          43.83707390200062
        ]
      }
    },
    {
      "type": "Feature",
      "properties": {
        "norad_id": 67002,
        "name": "ZK-1A R/B",
        "group": "last-30-days",
        "lat": -16.882224291062798,
        "lon": 75.49896031017896,
        "alt_km": 268.63681746661587,
        "timestamp": "2025-12-25T07:41:08.451665+00:00",
        "meta_object_name": "ZK-1A R/B",
        "meta_object_id": "2025-292K",
        "meta_epoch": "2025-12-24T19:25:44.119488",
        "meta_mean_motion": 15.58439592,
        "meta_eccentricity": 0.02061963,
        "meta_inclination": 97.7203,
        "meta_ra_of_asc_node": 72.585,
        "meta_arg_of_pericenter": 321.3647,
        "meta_mean_anomaly": 37.3004,
        "meta_ephemeris_type": 0,
        "meta_classification_type": "U",
        "meta_norad_cat_id": 67002,
        "meta_element_set_no": 999,
        "meta_rev_at_epoch": 227,
        "meta_bstar": 0.00075988202,
        "meta_mean_motion_dot": 0.00163758,
        "meta_mean_motion_ddot": 9.378867e-06,
        "tle_line1": "1 67002U 25292K   25358.80953842  .00163758  93789-5  75988-3 0  9998",
        "tle_line2": "2 67002  97.7203  72.5850 0206196 321.3647  37.3004 15.58439592  2271"
      },
      "geometry": {
        "type": "Point",
        "coordinates": [
          75.49896031017896,
          -16.882224291062798
        ]
      }
    },
    {
      "type": "Feature",
      "properties": {
        "norad_id": 67003,
        "name": "STARLINK-35660",
        "group": "last-30-days",
        "lat": -18.99171905472771,
        "lon": -79.8093565332475,
        "alt_km": 341.6326650385763,
        "timestamp": "2025-12-25T07:41:08.451679+00:00",
        "meta_object_name": "STARLINK-35660",
        "meta_object_id": "2025-293A",
        "meta_epoch": "2025-12-24T22:00:03.000096",
        "meta_mean_motion": 15.78901847,
        "meta_eccentricity": 0.00035107,
        "meta_inclination": 69.9932,
        "meta_ra_of_asc_node": 288.5429,
        "meta_arg_of_pericenter": 267.7125,
        "meta_mean_anomaly": 300.1788,
        "meta_ephemeris_type": 0,
        "meta_classification_type": "U",
        "meta_norad_cat_id": 67003,
        "meta_element_set_no": 999,
        "meta_rev_at_epoch": 212,
        "meta_bstar": -0.010758305,
        "meta_mean_motion_dot": -0.01657492,
        "meta_mean_motion_ddot": 0,
        "tle_line1": "1 67003U 25293A   25358.91670139 -.01657492  00000+0 -10758-1 0  9993",
        "tle_line2": "2 67003  69.9932 288.5429 0003510 267.7125 300.1788 15.78901847  2125"
      },
      "geometry": {
        "type": "Point",
        "coordinates": [
          -79.8093565332475,
          -18.99171905472771
        ]
      }
    }
  ]
}